STARLINK-2748           
1 48694U 21044BJ  26068.41220059 -.00000760  00000+0 -13545-4 0  9993
2 48694  53.1612  79.7966 0001477  95.3252 264.7917 15.30187135264271
LYNK TOWER 4            
1 55034U 23001AB  26068.67743801  .00009160  00000+0  30014-3 0  9997
2 55034  97.3324 128.5940 0010321 112.3386 247.8950 15.31819885176588
